start=new Date('2021-10-03T00:00:00.000Z').valueOf();
sats=[{"TLE_LINE1":"1 48117U 21027AB  21275.26309783  .00001064  00000-0  90341-4 0  9990","TLE_LINE2":"2 48117  53.0538 221.4959 0001544  64.0245 296.0903 15.06392597 28617","DECAY_DATE":null,"CENTER_NAME":"EARTH","CLASSIFICATION_TYPE":"U","RA_OF_ASC_NODE":"221.4959","OBJECT_NAME":"STARLINK-2455","ELEMENT_SET_NO":"999","PERIAPSIS":"546.167","BSTAR":"0.00009034100000","RCS_SIZE":"LARGE","MEAN_MOTION_DDOT":"0.0000000000000","SITE":"AFETR","APOAPSIS":"548.306","EPOCH":"2021-10-02T06:18:51.652512","ARG_OF_PERICENTER":"64.0245","MEAN_MOTION_DOT":"0.00001064","PERIOD":"95.593","REV_AT_EPOCH":"2861","ECCENTRICITY":"0.00015440","TIME_SYSTEM":"UTC","MEAN_ELEMENT_THEORY":"SGP4","MEAN_MOTION":"15.06392597","COUNTRY_CODE":"US","LAUNCH_DATE":"2021-04-07","REF_FRAME":"TEME","MEAN_ANOMALY":"296.0903","EPHEMERIS_TYPE":"0","INCLINATION":"53.0538","OBJECT_TYPE":"PAYLOAD","NORAD_CAT_ID":"48117","GP_ID":"186052613","OBJECT_ID":"2021-027AB","FILE":"3141323","SEMIMAJOR_AXIS":"6925.371"},{"MEAN_MOTION_DOT":"0.00000905","ARG_OF_PERICENTER":"66.6992","EPOCH":"2021-10-02T19:19:05.788704","APOAPSIS":"548.420","RCS_SIZE":"LARGE","MEAN_MOTION_DDOT":"0.0000000000000","SITE":"AFETR","BSTAR":"0.00007966400000","PERIAPSIS":"546.044","OBJECT_NAME":"STARLINK-2458","RA_OF_ASC_NODE":"219.0617","ELEMENT_SET_NO":"999","TLE_LINE1":"1 48118U 21027AC  21275.80492811  .00000905  00000-0  79664-4 0  9994","TLE_LINE2":"2 48118  53.0547 219.0617 0001715  66.6992 293.4177 15.06393923 28695","DECAY_DATE":null,"CLASSIFICATION_TYPE":"U","CENTER_NAME":"EARTH","GP_ID":"186053364","OBJECT_ID":"2021-027AC","FILE":"3141323","SEMIMAJOR_AXIS":"6925.367","MEAN_ANOMALY":"293.4177","EPHEMERIS_TYPE":"0","NORAD_CAT_ID":"48118","OBJECT_TYPE":"PAYLOAD","INCLINATION":"53.0547","REF_FRAME":"TEME","COUNTRY_CODE":"US","LAUNCH_DATE":"2021-04-07","MEAN_ELEMENT_THEORY":"SGP4","MEAN_MOTION":"15.06393923","TIME_SYSTEM":"UTC","REV_AT_EPOCH":"2869","ECCENTRICITY":"0.00017150","PERIOD":"95.593"},{"GP_ID":"186052112","FILE":"3141323","OBJECT_ID":"2021-027AD","SEMIMAJOR_AXIS":"6925.336","MEAN_ANOMALY":"300.4455","EPHEMERIS_TYPE":"0","OBJECT_TYPE":"PAYLOAD","INCLINATION":"53.0534","NORAD_CAT_ID":"48119","REF_FRAME":"TEME","COUNTRY_CODE":"US","LAUNCH_DATE":"2021-04-07","MEAN_ELEMENT_THEORY":"SGP4","MEAN_MOTION":"15.06404056","REV_AT_EPOCH":"2860","ECCENTRICITY":"0.00016340","TIME_SYSTEM":"UTC","PERIOD":"95.592","MEAN_MOTION_DOT":"0.00001247","ARG_OF_PERICENTER":"59.6695","APOAPSIS":"548.333","EPOCH":"2021-10-02T06:29:29.000256","RCS_SIZE":"LARGE","MEAN_MOTION_DDOT":"0.0000000000000","SITE":"AFETR","BSTAR":"0.00010260000000","PERIAPSIS":"546.070","RA_OF_ASC_NODE":"221.4600","OBJECT_NAME":"STARLINK-2459","ELEMENT_SET_NO":"999","TLE_LINE2":"2 48119  53.0534 221.4600 0001634  59.6695 300.4455 15.06404056 28602","DECAY_DATE":null,"TLE_LINE1":"1 48119U 21027AD  21275.27047454  .00001247  00000-0  10260-3 0  9991","CENTER_NAME":"EARTH","CLASSIFICATION_TYPE":"U"},{"RA_OF_ASC_NODE":"239.9500","OBJECT_NAME":"STARLINK-2460","ELEMENT_SET_NO":"999","TLE_LINE1":"1 48120U 21027AE  21275.60772732  .00000559  00000-0  56433-4 0  9992","TLE_LINE2":"2 48120  53.0555 239.9500 0001633  63.8162 296.2995 15.06400463 28390","DECAY_DATE":null,"CENTER_NAME":"EARTH","CLASSIFICATION_TYPE":"U","BSTAR":"0.00005643300000","PERIAPSIS":"546.081","APOAPSIS":"548.343","EPOCH":"2021-10-02T14:35:07.640448","RCS_SIZE":"LARGE","MEAN_MOTION_DDOT":"0.0000000000000","SITE":"AFETR","MEAN_MOTION_DOT":"0.00000559","ARG_OF_PERICENTER":"63.8162","REV_AT_EPOCH":"2839","ECCENTRICITY":"0.00016330","TIME_SYSTEM":"UTC","PERIOD":"95.592","MEAN_ELEMENT_THEORY":"SGP4","MEAN_MOTION":"15.06400463","REF_FRAME":"TEME","COUNTRY_CODE":"US","LAUNCH_DATE":"2021-04-07","GP_ID":"186051862","OBJECT_ID":"2021-027AE","FILE":"3141323","SEMIMAJOR_AXIS":"6925.347","MEAN_ANOMALY":"296.2995","EPHEMERIS_TYPE":"0","OBJECT_TYPE":"PAYLOAD","INCLINATION":"53.0555","NORAD_CAT_ID":"48120"},{"MEAN_MOTION_DOT":"0.00000129","ARG_OF_PERICENTER":"46.6847","APOAPSIS":"548.119","EPOCH":"2021-10-02T13:53:59.241696","RCS_SIZE":"LARGE","MEAN_MOTION_DDOT":"0.0000000000000","SITE":"AFETR","BSTAR":"0.00002752500000","PERIAPSIS":"546.299","OBJECT_NAME":"STARLINK-2462","RA_OF_ASC_NODE":"230.0796","ELEMENT_SET_NO":"999","TLE_LINE2":"2 48121  53.0552 230.0796 0001314  46.6847 313.4251 15.06401485 28518","TLE_LINE1":"1 48121U 21027AF  21275.57915789  .00000129  00000-0  27525-4 0  9993","DECAY_DATE":null,"CLASSIFICATION_TYPE":"U","CENTER_NAME":"EARTH","OBJECT_ID":"2021-027AF","GP_ID":"186053114","FILE":"3141323","SEMIMAJOR_AXIS":"6925.344","EPHEMERIS_TYPE":"0","MEAN_ANOMALY":"313.4251","NORAD_CAT_ID":"48121","OBJECT_TYPE":"PAYLOAD","INCLINATION":"53.0552","REF_FRAME":"TEME","COUNTRY_CODE":"US","LAUNCH_DATE":"2021-04-07","MEAN_ELEMENT_THEORY":"SGP4","MEAN_MOTION":"15.06401485","TIME_SYSTEM":"UTC","REV_AT_EPOCH":"2851","ECCENTRICITY":"0.00013140","PERIOD":"95.592"},{"PERIOD":"95.593","TIME_SYSTEM":"UTC","ECCENTRICITY":"0.00014080","REV_AT_EPOCH":"2859","MEAN_MOTION":"15.06393828","MEAN_ELEMENT_THEORY":"SGP4","LAUNCH_DATE":"2021-04-07","COUNTRY_CODE":"US","REF_FRAME":"TEME","NORAD_CAT_ID":"48122","INCLINATION":"53.0553","OBJECT_TYPE":"PAYLOAD","MEAN_ANOMALY":"291.9979","EPHEMERIS_TYPE":"0","SEMIMAJOR_AXIS":"6925.367","GP_ID":"186052864","FILE":"3141323","OBJECT_ID":"2021-027AG","CLASSIFICATION_TYPE":"U","CENTER_NAME":"EARTH","TLE_LINE2":"2 48122  53.0553 225.0721 0001408  68.1159 291.9979 15.06393828 28597","TLE_LINE1":"1 48122U 21027AG  21275.58052555  .00000708  00000-0  66419-4 0  9996","DECAY_DATE":null,"ELEMENT_SET_NO":"999","OBJECT_NAME":"STARLINK-2463","RA_OF_ASC_NODE":"225.0721","PERIAPSIS":"546.257","BSTAR":"0.00006641900000","SITE":"AFETR","MEAN_MOTION_DDOT":"0.0000000000000","RCS_SIZE":"LARGE","APOAPSIS":"548.208","EPOCH":"2021-10-02T13:55:57.407520","ARG_OF_PERICENTER":"68.1159","MEAN_MOTION_DOT":"0.00000708"},{"ARG_OF_PERICENTER":"61.4577","MEAN_MOTION_DOT":"0.00002530","RCS_SIZE":"LARGE","MEAN_MOTION_DDOT":"0.0000000000000","SITE":"AFETR","APOAPSIS":"548.294","EPOCH":"2021-10-02T14:05:56.045472","PERIAPSIS":"546.091","BSTAR":"0.00018863000000","TLE_LINE2":"2 48123  53.0541 220.0380 0001590  61.4577 298.6572 15.06406892 28660","TLE_LINE1":"1 48123U 21027AH  21275.58745423  .00002530  00000-0  18863-3 0  9994","DECAY_DATE":null,"CENTER_NAME":"EARTH","CLASSIFICATION_TYPE":"U","RA_OF_ASC_NODE":"220.0380","OBJECT_NAME":"STARLINK-2464","ELEMENT_SET_NO":"999","EPHEMERIS_TYPE":"0","MEAN_ANOMALY":"298.6572","OBJECT_TYPE":"PAYLOAD","INCLINATION":"53.0541","NORAD_CAT_ID":"48123","GP_ID":"186051612","OBJECT_ID":"2021-027AH","FILE":"3141323","SEMIMAJOR_AXIS":"6925.327","COUNTRY_CODE":"US","LAUNCH_DATE":"2021-04-07","REF_FRAME":"TEME","MEAN_ELEMENT_THEORY":"SGP4","MEAN_MOTION":"15.06406892","PERIOD":"95.592","REV_AT_EPOCH":"2866","ECCENTRICITY":"0.00015900","TIME_SYSTEM":"UTC"},{"REF_FRAME":"TEME","COUNTRY_CODE":"US","LAUNCH_DATE":"2021-04-07","GP_ID":"186052363","OBJECT_ID":"2021-027AJ","FILE":"3141323","SEMIMAJOR_AXIS":"6925.379","EPHEMERIS_TYPE":"0","MEAN_ANOMALY":"292.1100","NORAD_CAT_ID":"48124","OBJECT_TYPE":"PAYLOAD","INCLINATION":"53.0557","TIME_SYSTEM":"UTC","REV_AT_EPOCH":"2851","ECCENTRICITY":"0.00014970","PERIOD":"95.593","MEAN_ELEMENT_THEORY":"SGP4","MEAN_MOTION":"15.06390023","APOAPSIS":"548.281","EPOCH":"2021-10-02T14:04:37.178688","RCS_SIZE":"LARGE","SITE":"AFETR","MEAN_MOTION_DDOT":"0.0000000000000","MEAN_MOTION_DOT":"-0.00000028","ARG_OF_PERICENTER":"68.0048","OBJECT_NAME":"STARLINK-2465","RA_OF_ASC_NODE":"230.0506","ELEMENT_SET_NO":"999","TLE_LINE1":"1 48124U 21027AJ  21275.58654142 -.00000028  00000-0  17020-4 0  9998","TLE_LINE2":"2 48124  53.0557 230.0506 0001497  68.0048 292.1100 15.06390023 28519","DECAY_DATE":null,"CLASSIFICATION_TYPE":"U","CENTER_NAME":"EARTH","BSTAR":"0.00001702000000","PERIAPSIS":"546.207"},{"COUNTRY_CODE":"US","LAUNCH_DATE":"2021-04-07","REF_FRAME":"TEME","EPHEMERIS_TYPE":"0","MEAN_ANOMALY":"297.0603","INCLINATION":"53.0561","OBJECT_TYPE":"PAYLOAD","NORAD_CAT_ID":"48125","GP_ID":"186052614","FILE":"3141323","OBJECT_ID":"2021-027AK","SEMIMAJOR_AXIS":"6925.348","PERIOD":"95.592","ECCENTRICITY":"0.00009940","REV_AT_EPOCH":"2839","TIME_SYSTEM":"UTC","MEAN_ELEMENT_THEORY":"SGP4","MEAN_MOTION":"15.06400077","RCS_SIZE":"LARGE","MEAN_MOTION_DDOT":"0.0000000000000","SITE":"AFETR","EPOCH":"2021-10-02T15:26:50.290368","APOAPSIS":"547.902","ARG_OF_PERICENTER":"63.0487","MEAN_MOTION_DOT":"-0.00000645","TLE_LINE2":"2 48125  53.0561 239.7888 0000994  63.0487 297.0603 15.06400077 28396","TLE_LINE1":"1 48125U 21027AK  21275.64363762 -.00000645  00000-0 -24427-4 0  9996","DECAY_DATE":null,"CENTER_NAME":"EARTH","CLASSIFICATION_TYPE":"U","RA_OF_ASC_NODE":"239.7888","OBJECT_NAME":"STARLINK-2466","ELEMENT_SET_NO":"999","PERIAPSIS":"546.525","BSTAR":"-0.00002442700000"},{"ARG_OF_PERICENTER":"56.8530","MEAN_MOTION_DOT":"0.00000625","RCS_SIZE":"LARGE","MEAN_MOTION_DDOT":"0.0000000000000","SITE":"AFETR","EPOCH":"2021-10-02T13:18:10.135008","APOAPSIS":"548.315","PERIAPSIS":"546.121","BSTAR":"0.00006088600000","TLE_LINE2":"2 48126  53.0503 220.2106 0001584  56.8530 303.2611 15.06398508 28660","TLE_LINE1":"1 48126U 21027AL  21275.55428397  .00000625  00000-0  60886-4 0  9998","DECAY_DATE":null,"CENTER_NAME":"EARTH","CLASSIFICATION_TYPE":"U","RA_OF_ASC_NODE":"220.2106","OBJECT_NAME":"STARLINK-2467","ELEMENT_SET_NO":"999","EPHEMERIS_TYPE":"0","MEAN_ANOMALY":"303.2611","INCLINATION":"53.0503","OBJECT_TYPE":"PAYLOAD","NORAD_CAT_ID":"48126","OBJECT_ID":"2021-027AL","GP_ID":"186053365","FILE":"3141323","SEMIMAJOR_AXIS":"6925.353","COUNTRY_CODE":"US","LAUNCH_DATE":"2021-04-07","REF_FRAME":"TEME","MEAN_ELEMENT_THEORY":"SGP4","MEAN_MOTION":"15.06398508","PERIOD":"95.592","REV_AT_EPOCH":"2866","ECCENTRICITY":"0.00015840","TIME_SYSTEM":"UTC"}];
